{"type": "FeatureCollection", "features": [ {"type": "Feature", "properties": {"norad_id": 66649, "name": "COSMOS 2599 (RODNIK-S 24)", "group": "last-30-days", "lat": 67.0076935678987, "lon": 94.88201815979819, "alt_km": 1498.5781582278487, "timestamp": "2025-12-02T06:27:51.802810+00:00", "meta": {"OBJECT_NAME": "COSMOS 2599 (RODNIK-S 24)", "OBJECT_ID": "2025-273C", "EPOCH": "2025-12-01T20:11:43.813248", "MEAN_MOTION": 12.41671784, "ECCENTRICITY": 0.0008414, "INCLINATION": 82.5021, "RA_OF_ASC_NODE": 293.2275, "ARG_OF_PERICENTER": 324.9053, "MEAN_ANOMALY": 35.147, "EPHEMERIS_TYPE": 0, "CLASSIFICATION_TYPE": "U", "NORAD_CAT_ID": 66649, "ELEMENT_SET_NO": 999, "REV_AT_EPOCH": 78, "BSTAR": -0.00012655, "MEAN_MOTION_DOT": -7e-08, "MEAN_MOTION_DDOT": 0}, "tle": {"line1": "1 66649U 25273C   25335.84147932 -.00000007  00000+0 -12655-3 0  9996", "line2": "2 66649  82.5021 293.2275 0008414 324.9053  35.1470 12.41671784   780"}}, "geometry": {"type": "Point", "coordinates": [94.88201815979819, 67.0076935678987]}}, {"type": "Feature", "properties": {"norad_id": 66650, "name": "2025-274A", "group": "last-30-days", "lat": -78.78155630980325, "lon": 40.37309385988845, "alt_km": 593.9570754915503, "timestamp": "2025-12-02T06:27:51.802820+00:00", "meta": {"OBJECT_NAME": "2025-274A", "OBJECT_ID": "2025-274A", "EPOCH": "2025-12-01T18:01:23.237760", "MEAN_MOTION": 14.91597383, "ECCENTRICITY": 0.00105, "INCLINATION": 97.7377, "RA_OF_ASC_NODE": 263.1417, "ARG_OF_PERICENTER": 293.6126, "MEAN_ANOMALY": 66.399, "EPHEMERIS_TYPE": 0, "CLASSIFICATION_TYPE": "U", "NORAD_CAT_ID": 66650, "ELEMENT_SET_NO": 999, "REV_AT_EPOCH": 76, "BSTAR": 0.00024081, "MEAN_MOTION_DOT": 2.363e-05, "MEAN_MOTION_DDOT": 0}, "tle": {"line1": "1 66650U 25274A   25335.75096340  .00002363  00000+0  24081-3 0  9996", "line2": "2 66650  97.7377 263.1417 0010500 293.6126  66.3990 14.91597383   760"}}, "geometry": {"type": "Point", "coordinates": [40.37309385988845, -78.78155630980325]}}, {"type": "Feature", "properties": {"norad_id": 66651, "name": "2025-274B", "group": "last-30-days", "lat": -79.56694478670533, "lon": 36.05745871382275, "alt_km": 593.4627081198569, "timestamp": "2025-12-02T06:27:51.802832+00:00", "meta": {"OBJECT_NAME": "2025-274B", "OBJECT_ID": "2025-274B", "EPOCH": "2025-12-01T18:01:06.913344", "MEAN_MOTION": 14.91660542, "ECCENTRICITY": 0.0010821, "INCLINATION": 97.7371, "RA_OF_ASC_NODE": 263.1416, "ARG_OF_PERICENTER": 293.1712, "MEAN_ANOMALY": 66.8366, "EPHEMERIS_TYPE": 0, "CLASSIFICATION_TYPE": "U", "NORAD_CAT_ID": 66651, "ELEMENT_SET_NO": 999, "REV_AT_EPOCH": 76, "BSTAR": 0.00042597, "MEAN_MOTION_DOT": 4.231e-05, "MEAN_MOTION_DDOT": 0}, "tle": {"line1": "1 66651U 25274B   25335.75077446  .00004231  00000+0  42597-3 0  9991", "line2": "2 66651  97.7371 263.1416 0010821 293.1712  66.8366 14.91660542   766"}}, "geometry": {"type": "Point", "coordinates": [36.05745871382275, -79.56694478670533]}}, {"type": "Feature", "properties": {"norad_id": 66652, "name": "2025-274C", "group": "last-30-days", "lat": -81.29523003415545, "lon": 21.023263769246515, "alt_km": 593.3820269607604, "timestamp": "2025-12-02T06:27:51.802844+00:00", "meta": {"OBJECT_NAME": "2025-274C", "OBJECT_ID": "2025-274C", "EPOCH": "2025-12-01T18:00:22.620384", "MEAN_MOTION": 14.91809691, "ECCENTRICITY": 0.0010598, "INCLINATION": 97.7376, "RA_OF_ASC_NODE": 263.1427, "ARG_OF_PERICENTER": 299.8583, "MEAN_ANOMALY": 60.1582, "EPHEMERIS_TYPE": 0, "CLASSIFICATION_TYPE": "U", "NORAD_CAT_ID": 66652, "ELEMENT_SET_NO": 999, "REV_AT_EPOCH": 76, "BSTAR": 0.00032905, "MEAN_MOTION_DOT": 3.267e-05, "MEAN_MOTION_DDOT": 0}, "tle": {"line1": "1 66652U 25274C   25335.75026181  .00003267  00000+0  32905-3 0  9992", "line2": "2 66652  97.7376 263.1427 0010598 299.8583  60.1582 14.91809691   761"}}, "geometry": {"type": "Point", "coordinates": [21.023263769246515, -81.29523003415545]}}, {"type": "Feature", "properties": {"norad_id": 66653, "name": "2025-274D", "group": "last-30-days", "lat": -81.37849065772929, "lon": 19.92393320369887, "alt_km": 592.5194441054209, "timestamp": "2025-12-02T06:27:51.802854+00:00", "meta": {"OBJECT_NAME": "2025-274D", "OBJECT_ID": "2025-274D", "EPOCH": "2025-12-01T13:10:34.075200", "MEAN_MOTION": 14.91814661, "ECCENTRICITY": 0.0011479, "INCLINATION": 97.7371, "RA_OF_ASC_NODE": 262.9443, "ARG_OF_PERICENTER": 295.9245, "MEAN_ANOMALY": 64.079, "EPHEMERIS_TYPE": 0, "CLASSIFICATION_TYPE": "U", "NORAD_CAT_ID": 66653, "ELEMENT_SET_NO": 999, "REV_AT_EPOCH": 73, "BSTAR": 0.00015151, "MEAN_MOTION_DOT": 1.474e-05, "MEAN_MOTION_DDOT": 0}, "tle": {"line1": "1 66653U 25274D   25335.54900550  .00001474  00000+0  15151-3 0  9993", "line2": "2 66653  97.7371 262.9443 0011479 295.9245  64.0790 14.91814661   737"}}, "geometry": {"type": "Point", "coordinates": [19.92393320369887, -81.37849065772929]}}, {"type": "Feature", "properties": {"norad_id": 66654, "name": "JACK E", "group": "last-30-days", "lat": -82.23478051889897, "lon": -1.9649693064248592, "alt_km": 591.6413015172002, "timestamp": "2025-12-02T06:27:51.802864+00:00", "meta": {"OBJECT_NAME": "JACK E", "OBJECT_ID": "2025-274E", "EPOCH": "2025-12-01T17:59:32.726112", "MEAN_MOTION": 14.91979897, "ECCENTRICITY": 0.0011917, "INCLINATION": 97.7376, "RA_OF_ASC_NODE": 263.1434, "ARG_OF_PERICENTER": 297.0953, "MEAN_ANOMALY": 62.905, "EPHEMERIS_TYPE": 0, "CLASSIFICATION_TYPE": "U", "NORAD_CAT_ID": 66654, "ELEMENT_SET_NO": 999, "REV_AT_EPOCH": 76, "BSTAR": 0.00036825, "MEAN_MOTION_DOT": 3.68e-05, "MEAN_MOTION_DDOT": 0}, "tle": {"line1": "1 66654U 25274E   25335.74968433  .00003680  00000+0  36825-3 0  9992", "line2": "2 66654  97.7376 263.1434 0011917 297.0953  62.9050 14.91979897   764"}}, "geometry": {"type": "Point", "coordinates": [-1.9649693064248592, -82.23478051889897]}}, {"type": "Feature", "properties": {"norad_id": 66655, "name": "2025-274F", "group": "last-30-days", "lat": -82.04432402815786, "lon": -19.80013570982136, "alt_km": 595.0039863043667, "timestamp": "2025-12-02T06:27:51.802875+00:00", "meta": {"OBJECT_NAME": "2025-274F", "OBJECT_ID": "2025-274F", "EPOCH": "2025-12-01T19:35:34.772352", "MEAN_MOTION": 14.92205724, "ECCENTRICITY": 0.0008008, "INCLINATION": 97.7348, "RA_OF_ASC_NODE": 263.2101, "ARG_OF_PERICENTER": 325.7841, "MEAN_ANOMALY": 34.2861, "EPHEMERIS_TYPE": 0, "CLASSIFICATION_TYPE": "U", "NORAD_CAT_ID": 66655, "ELEMENT_SET_NO": 999, "REV_AT_EPOCH": 77, "BSTAR": 0.00036057, "MEAN_MOTION_DOT": 3.62e-05, "MEAN_MOTION_DDOT": 0}, "tle": {"line1": "1 66655U 25274F   25335.81637468  .00003620  00000+0  36057-3 0  9993", "line2": "2 66655  97.7348 263.2101 0008008 325.7841  34.2861 14.92205724   773"}}, "geometry": {"type": "Point", "coordinates": [-19.80013570982136, -82.04432402815786]}}, {"type": "Feature", "properties": {"norad_id": 66656, "name": "2025-274G", "group": "last-30-days", "lat": -81.70420681173331, "lon": -27.522025484699228, "alt_km": 590.503987391714, "timestamp": "2025-12-02T06:27:51.802885+00:00", "meta": {"OBJECT_NAME": "2025-274G", "OBJECT_ID": "2025-274G", "EPOCH": "2025-12-01T17:58:40.345248", "MEAN_MOTION": 14.92160082, "ECCENTRICITY": 0.0012613, "INCLINATION": 97.7374, "RA_OF_ASC_NODE": 263.1441, "ARG_OF_PERICENTER": 298.549, "MEAN_ANOMALY": 61.4459, "EPHEMERIS_TYPE": 0, "CLASSIFICATION_TYPE": "U", "NORAD_CAT_ID": 66656, "ELEMENT_SET_NO": 999, "REV_AT_EPOCH": 76, "BSTAR": 0.00039914, "MEAN_MOTION_DOT": 4.012e-05, "MEAN_MOTION_DDOT": 0}, "tle": {"line1": "1 66656U 25274G   25335.74907807  .00004012  00000+0  39914-3 0  9994", "line2": "2 66656  97.7374 263.1441 0012613 298.5490  61.4459 14.92160082   764"}}, "geometry": {"type": "Point", "coordinates": [-27.522025484699228, -81.70420681173331]}}, {"type": "Feature", "properties": {"norad_id": 66657, "name": "SPIRONE", "group": "last-30-days", "lat": -79.88053828056678, "lon": -46.724003172338335, "alt_km": 591.9208133763095, "timestamp": "2025-12-02T06:27:51.802895+00:00", "meta": {"OBJECT_NAME": "SPIRONE", "OBJECT_ID": "2025-274H", "EPOCH": "2025-12-01T17:57:48.824064", "MEAN_MOTION": 14.92340933, "ECCENTRICITY": 0.001125, "INCLINATION": 97.7371, "RA_OF_ASC_NODE": 263.1447, "ARG_OF_PERICENTER": 317.7398, "MEAN_ANOMALY": 42.2953, "EPHEMERIS_TYPE": 0, "CLASSIFICATION_TYPE": "U", "NORAD_CAT_ID": 66657, "ELEMENT_SET_NO": 999, "REV_AT_EPOCH": 76, "BSTAR": 0.00040931, "MEAN_MOTION_DOT": 4.134e-05, "MEAN_MOTION_DDOT": 0}, "tle": {"line1": "1 66657U 25274H   25335.74848176  .00004134  00000+0  40931-3 0  9994", "line2": "2 66657  97.7371 263.1447 0011250 317.7398  42.2953 14.92340933   766"}}, "geometry": {"type": "Point", "coordinates": [-46.724003172338335, -79.88053828056678]}}, {"type": "Feature", "properties": {"norad_id": 66658, "name": "2025-274J", "group": "last-30-days", "lat": -77.32654608288487, "lon": -59.14179938061801, "alt_km": 590.9295337427639, "timestamp": "2025-12-02T06:27:51.802905+00:00", "meta": {"OBJECT_NAME": "2025-274J", "OBJECT_ID": "2025-274J", "EPOCH": "2025-12-01T17:56:57.132672", "MEAN_MOTION": 14.92515678, "ECCENTRICITY": 0.0011882, "INCLINATION": 97.7372, "RA_OF_ASC_NODE": 263.1455, "ARG_OF_PERICENTER": 320.2054, "MEAN_ANOMALY": 39.8293, "EPHEMERIS_TYPE": 0, "CLASSIFICATION_TYPE": "U", "NORAD_CAT_ID": 66658, "ELEMENT_SET_NO": 999, "REV_AT_EPOCH": 76, "BSTAR": 0.00036543, "MEAN_MOTION_DOT": 3.701e-05, "MEAN_MOTION_DDOT": 0}, "tle": {"line1": "1 66658U 25274J   25335.74788348  .00003701  00000+0  36543-3 0  9992", "line2": "2 66658  97.7372 263.1455 0011882 320.2054  39.8293 14.92515678   765"}}, "geometry": {"type": "Point", "coordinates": [-59.14179938061801, -77.32654608288487]}}]}